{
  "type": "FeatureCollection",
  "features": [
    {
      "type": "Feature",
      "properties": {
        "osmId": 10722579,
        "name": null,
        "highway": "service"
      },
      "geometry": {
        "type": "LineString",
        "coordinates": [
          [
            -118.7836005,
            34.268168
          ],
          [
            -118.78245,
            34.268171
          ],
          [
            -118.781258,
            34.268172
          ],
          [
            -118.780067,
            34.268173
          ],
          [
            -118.7795618,
            34.2681691
          ],
          [
            -118.7789723,
            34.2681646
          ],
          [
            -118.7788695,
            34.2681638
          ]
        ]
      }
    },
    {
      "type": "Feature",
      "properties": {
        "osmId": 10723695,
        "name": null,
        "highway": "service"
      },
      "geometry": {
        "type": "LineString",
        "coordinates": [
          [
            -118.782452,
            34.2691748
          ],
          [
            -118.78126,
            34.2691813
          ],
          [
            -118.7800793,
            34.269172
          ],
          [
            -118.7793719,
            34.2691849
          ],
          [
            -118.7789686,
            34.2691767
          ],
          [
            -118.778883,
            34.2691738
          ]
        ]
      }
    },
    {
      "type": "Feature",
      "properties": {
        "osmId": 10727927,
        "name": "Violet Lane",
        "highway": "residential"
      },
      "geometry": {
        "type": "LineString",
        "coordinates": [
          [
            -118.777593,
            34.265682
          ],
          [
            -118.777621,
            34.265714
          ],
          [
            -118.777634,
            34.265745
          ],
          [
            -118.777637,
            34.266596
          ]
        ]
      }
    },
    {
      "type": "Feature",
      "properties": {
        "osmId": 10728479,
        "name": "Driftwood Avenue",
        "highway": "residential"
      },
      "geometry": {
        "type": "LineString",
        "coordinates": [
          [
            -118.7760928,
            34.2666847
          ],
          [
            -118.7758859,
            34.2667129
          ],
          [
            -118.7757447,
            34.2667253
          ],
          [
            -118.7750573,
            34.2667275
          ]
        ]
      }
    },
    {
      "type": "Feature",
      "properties": {
        "osmId": 10728639,
        "name": "Oleander Way",
        "highway": "residential"
      },
      "geometry": {
        "type": "LineString",
        "coordinates": [
          [
            -118.778238,
            34.266553
          ],
          [
            -118.778209,
            34.266575
          ],
          [
            -118.778162,
            34.266592
          ],
          [
            -118.778129,
            34.266596
          ],
          [
            -118.777637,
            34.266596
          ],
          [
            -118.777012,
            34.266597
          ]
        ]
      }
    },
    {
      "type": "Feature",
      "properties": {
        "osmId": 10728798,
        "name": "Marigold Lane",
        "highway": "residential"
      },
      "geometry": {
        "type": "LineString",
        "coordinates": [
          [
            -118.777058,
            34.268016
          ],
          [
            -118.777034,
            34.268043
          ],
          [
            -118.777017,
            34.268084
          ],
          [
            -118.777018,
            34.268447
          ],
          [
            -118.777029,
            34.268478
          ],
          [
            -118.77706,
            34.268515
          ]
        ]
      }
    },
    {
      "type": "Feature",
      "properties": {
        "osmId": 10729711,
        "name": "Cedar Creek Lane",
        "highway": "residential"
      },
      "geometry": {
        "type": "LineString",
        "coordinates": [
          [
            -118.7788576,
            34.2656362
          ],
          [
            -118.7787121,
            34.2656353
          ],
          [
            -118.7786303,
            34.2656345
          ],
          [
            -118.778269,
            34.265631
          ]
        ]
      }
    },
    {
      "type": "Feature",
      "properties": {
        "osmId": 10730466,
        "name": "Rose Arbor Lane",
        "highway": "residential"
      },
      "geometry": {
        "type": "LineString",
        "coordinates": [
          [
            -118.777049,
            34.265686
          ],
          [
            -118.777023,
            34.265719
          ],
          [
            -118.777012,
            34.26575
          ],
          [
            -118.777012,
            34.266597
          ],
          [
            -118.777014,
            34.267353
          ],
          [
            -118.777028,
            34.267389
          ],
          [
            -118.777039,
            34.267405
          ]
        ]
      }
    },
    {
      "type": "Feature",
      "properties": {
        "osmId": 10732451,
        "name": "Gardenia Lane",
        "highway": "residential"
      },
      "geometry": {
        "type": "LineString",
        "coordinates": [
          [
            -118.777593,
            34.265682
          ],
          [
            -118.777547,
            34.265657
          ],
          [
            -118.7775,
            34.265649
          ],
          [
            -118.777124,
            34.265651
          ],
          [
            -118.777075,
            34.265668
          ],
          [
            -118.777049,
            34.265686
          ]
        ]
      }
    },
    {
      "type": "Feature",
      "properties": {
        "osmId": 10732896,
        "name": "Ashland Avenue",
        "highway": "residential"
      },
      "geometry": {
        "type": "LineString",
        "coordinates": [
          [
            -118.783605,
            34.2686774
          ],
          [
            -118.782451,
            34.26868
          ],
          [
            -118.7812657,
            34.2686754
          ],
          [
            -118.7800781,
            34.2686698
          ],
          [
            -118.7789722,
            34.2686615
          ],
          [
            -118.7788734,
            34.2686608
          ]
        ]
      }
    },
    {
      "type": "Feature",
      "properties": {
        "osmId": 10734123,
        "name": "Walnut Grove Lane",
        "highway": "residential"
      },
      "geometry": {
        "type": "LineString",
        "coordinates": [
          [
            -118.778212,
            34.2685374
          ],
          [
            -118.778176,
            34.2685509
          ],
          [
            -118.778126,
            34.2685634
          ],
          [
            -118.777133,
            34.268546
          ],
          [
            -118.777084,
            34.26853
          ],
          [
            -118.77706,
            34.268515
          ]
        ]
      }
    },
    {
      "type": "Feature",
      "properties": {
        "osmId": 10735016,
        "name": "Azalea Way",
        "highway": "residential"
      },
      "geometry": {
        "type": "LineString",
        "coordinates": [
          [
            -118.77823,
            34.267503
          ],
          [
            -118.778193,
            34.267474
          ],
          [
            -118.778146,
            34.267457
          ],
          [
            -118.778114,
            34.267454
          ],
          [
            -118.777126,
            34.267453
          ],
          [
            -118.777083,
            34.267439
          ],
          [
            -118.777039,
            34.267405
          ]
        ]
      }
    },
    {
      "type": "Feature",
      "properties": {
        "osmId": 10737308,
        "name": "Ayhen Street",
        "highway": "residential"
      },
      "geometry": {
        "type": "LineString",
        "coordinates": [
          [
            -118.7831718,
            34.2669149
          ],
          [
            -118.783123,
            34.2669158
          ],
          [
            -118.7830525,
            34.2669119
          ],
          [
            -118.7825117,
            34.2669119
          ],
          [
            -118.7824062,
            34.2669119
          ],
          [
            -118.7822784,
            34.2669106
          ],
          [
            -118.781457,
            34.266902
          ],
          [
            -118.780597,
            34.266906
          ],
          [
            -118.779736,
            34.266911
          ],
          [
            -118.7790087,
            34.2669127
          ],
          [
            -118.7789776,
            34.2669128
          ],
          [
            -118.7788617,
            34.266913
          ],
          [
            -118.7787266,
            34.2669154
          ]
        ]
      }
    },
    {
      "type": "Feature",
      "properties": {
        "osmId": 10738601,
        "name": "Ventura Avenue",
        "highway": "residential"
      },
      "geometry": {
        "type": "LineString",
        "coordinates": [
          [
            -118.7836017,
            34.2676531
          ],
          [
            -118.7835584,
            34.267654
          ],
          [
            -118.7824557,
            34.2676607
          ],
          [
            -118.7812587,
            34.2676645
          ],
          [
            -118.7800721,
            34.2676586
          ],
          [
            -118.7795664,
            34.2676591
          ],
          [
            -118.7789954,
            34.2676598
          ],
          [
            -118.7788681,
            34.2676599
          ]
        ]
      }
    },
    {
      "type": "Feature",
      "properties": {
        "osmId": 10739596,
        "name": "Golden Amber Lane",
        "highway": "residential"
      },
      "geometry": {
        "type": "LineString",
        "coordinates": [
          [
            -118.778274,
            34.2679982
          ],
          [
            -118.777132,
            34.267983
          ],
          [
            -118.777084,
            34.267999
          ],
          [
            -118.777058,
            34.268016
          ]
        ]
      }
    },
    {
      "type": "Feature",
      "properties": {
        "osmId": 10741403,
        "name": "Willowbrook Lane",
        "highway": "residential"
      },
      "geometry": {
        "type": "LineString",
        "coordinates": [
          [
            -118.776118,
            34.2644866
          ],
          [
            -118.7761183,
            34.2645989
          ],
          [
            -118.7761187,
            34.2647977
          ],
          [
            -118.7761235,
            34.2652878
          ],
          [
            -118.7761298,
            34.2654041
          ],
          [
            -118.7761785,
            34.2656471
          ],
          [
            -118.7761874,
            34.2657858
          ],
          [
            -118.7761691,
            34.2659714
          ],
          [
            -118.776127,
            34.2661496
          ],
          [
            -118.7760835,
            34.2662757
          ],
          [
            -118.7760615,
            34.266376
          ],
          [
            -118.7760527,
            34.2664583
          ],
          [
            -118.7760675,
            34.2665756
          ],
          [
            -118.7760928,
            34.2666847
          ],
          [
            -118.7761286,
            34.2668409
          ],
          [
            -118.7761434,
            34.2669423
          ],
          [
            -118.7761497,
            34.2670603
          ],
          [
            -118.776127,
            34.26848
          ],
          [
            -118.776139,
            34.268603
          ],
          [
            -118.776188,
            34.268768
          ],
          [
            -118.776261,
            34.26891
          ],
          [
            -118.776334,
            34.269002
          ],
          [
            -118.7763905,
            34.2690689
          ],
          [
            -118.7765281,
            34.2691803
          ]
        ]
      }
    },
    {
      "type": "Feature",
      "properties": {
        "osmId": 10741455,
        "name": "Dennis Avenue",
        "highway": "residential"
      },
      "geometry": {
        "type": "LineString",
        "coordinates": [
          [
            -118.7831708,
            34.265204
          ],
          [
            -118.7831439,
            34.2651957
          ],
          [
            -118.783117,
            34.265194
          ],
          [
            -118.7830737,
            34.2651932
          ],
          [
            -118.7824698,
            34.265202
          ],
          [
            -118.78235,
            34.2652038
          ],
          [
            -118.7822324,
            34.2652032
          ],
          [
            -118.7814714,
            34.265206
          ],
          [
            -118.780594,
            34.265191
          ],
          [
            -118.779733,
            34.265191
          ],
          [
            -118.7790449,
            34.2652029
          ],
          [
            -118.7790084,
            34.2652035
          ],
          [
            -118.7789037,
            34.2652053
          ]
        ]
      }
    },
    {
      "type": "Feature",
      "properties": {
        "osmId": 10743266,
        "name": "Clayton Way",
        "highway": "residential"
      },
      "geometry": {
        "type": "LineString",
        "coordinates": [
          [
            -118.776904,
            34.26519
          ],
          [
            -118.7769788,
            34.2651266
          ],
          [
            -118.7769826,
            34.2645872
          ],
          [
            -118.7769775,
            34.2644619
          ]
        ]
      }
    },
    {
      "type": "Feature",
      "properties": {
        "osmId": 10744293,
        "name": "Windmill Way",
        "highway": "residential"
      },
      "geometry": {
        "type": "LineString",
        "coordinates": [
          [
            -118.778268,
            34.26493
          ],
          [
            -118.778269,
            34.265631
          ],
          [
            -118.778269,
            34.266499
          ],
          [
            -118.778251,
            34.266538
          ],
          [
            -118.778238,
            34.266553
          ]
        ]
      }
    },
    {
      "type": "Feature",
      "properties": {
        "osmId": 10744339,
        "name": "Silver Tree Lane",
        "highway": "residential"
      },
      "geometry": {
        "type": "LineString",
        "coordinates": [
          [
            -118.77823,
            34.267503
          ],
          [
            -118.778252,
            34.267544
          ],
          [
            -118.778256,
            34.267572
          ],
          [
            -118.778274,
            34.2679982
          ],
          [
            -118.778277,
            34.2682851
          ],
          [
            -118.778274,
            34.2684573
          ],
          [
            -118.778248,
            34.268509
          ],
          [
            -118.778212,
            34.2685374
          ]
        ]
      }
    },
    {
      "type": "Feature",
      "properties": {
        "osmId": 604189851,
        "name": "First Street",
        "highway": "secondary"
      },
      "geometry": {
        "type": "LineString",
        "coordinates": [
          [
            -118.7790378,
            34.2644667
          ],
          [
            -118.7790412,
            34.2643516
          ],
          [
            -118.7790594,
            34.2637347
          ]
        ]
      }
    },
    {
      "type": "Feature",
      "properties": {
        "osmId": 621501195,
        "name": null,
        "highway": "service"
      },
      "geometry": {
        "type": "LineString",
        "coordinates": [
          [
            -118.7788927,
            34.2696889
          ],
          [
            -118.7787584,
            34.269689
          ],
          [
            -118.7786657,
            34.2696907
          ],
          [
            -118.7782206,
            34.269693
          ],
          [
            -118.7781175,
            34.2696592
          ],
          [
            -118.777854,
            34.2695729
          ],
          [
            -118.7774051,
            34.2694709
          ],
          [
            -118.7769069,
            34.2693577
          ]
        ]
      }
    },
    {
      "type": "Feature",
      "properties": {
        "osmId": 642017769,
        "name": "Snapdragon Lane",
        "highway": "residential"
      },
      "geometry": {
        "type": "LineString",
        "coordinates": [
          [
            -118.778868,
            34.2682814
          ],
          [
            -118.7787334,
            34.268283
          ],
          [
            -118.7786322,
            34.2682841
          ],
          [
            -118.778611,
            34.2682843
          ],
          [
            -118.778277,
            34.2682851
          ]
        ]
      }
    },
    {
      "type": "Feature",
      "properties": {
        "osmId": 682884438,
        "name": "First Street",
        "highway": "secondary"
      },
      "geometry": {
        "type": "LineString",
        "coordinates": [
          [
            -118.7788927,
            34.2696889
          ],
          [
            -118.778883,
            34.2691738
          ],
          [
            -118.7788734,
            34.2686608
          ],
          [
            -118.778868,
            34.2682814
          ],
          [
            -118.7788695,
            34.2681638
          ],
          [
            -118.7788681,
            34.2676599
          ],
          [
            -118.7788617,
            34.266913
          ],
          [
            -118.7788576,
            34.2656362
          ],
          [
            -118.778859,
            34.2655035
          ],
          [
            -118.778873,
            34.2653687
          ],
          [
            -118.7789037,
            34.2652053
          ]
        ]
      }
    },
    {
      "type": "Feature",
      "properties": {
        "osmId": 682884442,
        "name": "First Street",
        "highway": "secondary"
      },
      "geometry": {
        "type": "LineString",
        "coordinates": [
          [
            -118.7788796,
            34.2644601
          ],
          [
            -118.7788569,
            34.2645809
          ],
          [
            -118.7788529,
            34.2646024
          ],
          [
            -118.7787603,
            34.2651798
          ],
          [
            -118.7787283,
            34.2653933
          ],
          [
            -118.7787127,
            34.2655429
          ],
          [
            -118.7787121,
            34.2656353
          ],
          [
            -118.7787266,
            34.2669154
          ],
          [
            -118.7787269,
            34.2669588
          ],
          [
            -118.7787281,
            34.2671335
          ],
          [
            -118.7787316,
            34.2676408
          ],
          [
            -118.7787334,
            34.268283
          ],
          [
            -118.7787388,
            34.2686448
          ],
          [
            -118.7787463,
            34.269419
          ],
          [
            -118.7787584,
            34.269689
          ]
        ]
      }
    },
    {
      "type": "Feature",
      "properties": {
        "osmId": 723960810,
        "name": null,
        "highway": "service"
      },
      "geometry": {
        "type": "LineString",
        "coordinates": [
          [
            -118.7781175,
            34.2696592
          ],
          [
            -118.7781653,
            34.2694378
          ],
          [
            -118.7775486,
            34.2692763
          ],
          [
            -118.7775013,
            34.2692885
          ],
          [
            -118.7774437,
            34.2693557
          ],
          [
            -118.7774051,
            34.2694709
          ]
        ]
      }
    },
    {
      "type": "Feature",
      "properties": {
        "osmId": 827993875,
        "name": "First Street",
        "highway": "secondary"
      },
      "geometry": {
        "type": "LineString",
        "coordinates": [
          [
            -118.7788845,
            34.263738
          ],
          [
            -118.7788984,
            34.2640353
          ],
          [
            -118.7788852,
            34.2643329
          ],
          [
            -118.778884,
            34.2643612
          ],
          [
            -118.7788796,
            34.2644601
          ]
        ]
      }
    },
    {
      "type": "Feature",
      "properties": {
        "osmId": 847428048,
        "name": null,
        "highway": "service"
      },
      "geometry": {
        "type": "LineString",
        "coordinates": [
          [
            -118.7787269,
            34.2669588
          ],
          [
            -118.7786371,
            34.2669583
          ],
          [
            -118.7780818,
            34.2669552
          ],
          [
            -118.7778313,
            34.2669538
          ],
          [
            -118.7776172,
            34.2669526
          ],
          [
            -118.7775824,
            34.2669752
          ],
          [
            -118.7775724,
            34.267002
          ],
          [
            -118.7775849,
            34.2671109
          ],
          [
            -118.7776072,
            34.2671335
          ],
          [
            -118.7776644,
            34.2671396
          ],
          [
            -118.7778326,
            34.2671386
          ],
          [
            -118.7780871,
            34.2671372
          ],
          [
            -118.7786362,
            34.267134
          ],
          [
            -118.7787281,
            34.2671335
          ]
        ]
      }
    },
    {
      "type": "Feature",
      "properties": {
        "osmId": 847428049,
        "name": null,
        "highway": "service"
      },
      "geometry": {
        "type": "LineString",
        "coordinates": [
          [
            -118.7780818,
            34.2669552
          ],
          [
            -118.7780871,
            34.2671372
          ]
        ]
      }
    },
    {
      "type": "Feature",
      "properties": {
        "osmId": 847428050,
        "name": null,
        "highway": "service"
      },
      "geometry": {
        "type": "LineString",
        "coordinates": [
          [
            -118.7778313,
            34.2669538
          ],
          [
            -118.7778326,
            34.2671386
          ]
        ]
      }
    },
    {
      "type": "Feature",
      "properties": {
        "osmId": 847973528,
        "name": null,
        "highway": "service"
      },
      "geometry": {
        "type": "LineString",
        "coordinates": [
          [
            -118.7781708,
            34.2692294
          ],
          [
            -118.778177,
            34.2693599
          ],
          [
            -118.7781653,
            34.2694378
          ]
        ]
      }
    },
    {
      "type": "Feature",
      "properties": {
        "osmId": 940149441,
        "name": "Royal Avenue",
        "highway": "secondary"
      },
      "geometry": {
        "type": "LineString",
        "coordinates": [
          [
            -118.7788796,
            34.2644601
          ],
          [
            -118.7787398,
            34.2644603
          ],
          [
            -118.7787149,
            34.2644603
          ],
          [
            -118.7774386,
            34.2644617
          ],
          [
            -118.777184,
            34.264462
          ],
          [
            -118.7769775,
            34.2644619
          ],
          [
            -118.776118,
            34.2644866
          ],
          [
            -118.77505,
            34.2644862
          ],
          [
            -118.7745532,
            34.2644856
          ],
          [
            -118.7744477,
            34.2644833
          ],
          [
            -118.7742686,
            34.2644836
          ],
          [
            -118.7736657,
            34.2644846
          ],
          [
            -118.7733305,
            34.2644842
          ]
        ]
      }
    },
    {
      "type": "Feature",
      "properties": {
        "osmId": 970795472,
        "name": null,
        "highway": "service"
      },
      "geometry": {
        "type": "LineString",
        "coordinates": [
          [
            -118.7774386,
            34.2644617
          ],
          [
            -118.7774439,
            34.2646733
          ],
          [
            -118.7774669,
            34.2646959
          ],
          [
            -118.777481,
            34.2647237
          ],
          [
            -118.7774815,
            34.2648771
          ],
          [
            -118.7774819,
            34.2650305
          ],
          [
            -118.7774563,
            34.2650693
          ],
          [
            -118.7774085,
            34.2651328
          ],
          [
            -118.7774103,
            34.2653089
          ]
        ]
      }
    },
    {
      "type": "Feature",
      "properties": {
        "osmId": 1043304403,
        "name": "Royal Avenue",
        "highway": "secondary"
      },
      "geometry": {
        "type": "LineString",
        "coordinates": [
          [
            -118.7790378,
            34.2644667
          ],
          [
            -118.7788796,
            34.2644601
          ]
        ]
      }
    },
    {
      "type": "Feature",
      "properties": {
        "osmId": 1072202756,
        "name": "Royal Avenue",
        "highway": "secondary"
      },
      "geometry": {
        "type": "LineString",
        "coordinates": [
          [
            -118.785125,
            34.264432
          ],
          [
            -118.7850708,
            34.2644321
          ],
          [
            -118.7843532,
            34.2644331
          ],
          [
            -118.7839552,
            34.2644337
          ],
          [
            -118.783728,
            34.264434
          ],
          [
            -118.783605,
            34.264434
          ],
          [
            -118.7823503,
            34.264436
          ],
          [
            -118.7791857,
            34.2644653
          ],
          [
            -118.7791527,
            34.2644656
          ],
          [
            -118.7790378,
            34.2644667
          ]
        ]
      }
    },
    {
      "type": "Feature",
      "properties": {
        "osmId": 1236187403,
        "name": "First Street",
        "highway": "secondary"
      },
      "geometry": {
        "type": "LineString",
        "coordinates": [
          [
            -118.7789037,
            34.2652053
          ],
          [
            -118.7790004,
            34.2646004
          ],
          [
            -118.7790021,
            34.2645899
          ],
          [
            -118.7790049,
            34.2645803
          ],
          [
            -118.7790378,
            34.2644667
          ]
        ]
      }
    }
  ]
}
